GLOBALSTAR M023         
1 25621U 99004A   25135.18987080 -.00000092  00000+0  66450-4 0  9991
2 25621  52.0078 153.9195 0009480  52.2921  32.6661 12.62503866211653
GLOBALSTAR M040         
1 25622U 99004B   25134.45193488 -.00000085  00000+0  10535-3 0  9996
2 25622  51.9889 160.2713 0000754 317.0799 184.1435 12.62010128210991
GLOBALSTAR M036         
1 25623U 99004C   25135.04729858 -.00000009  00000+0  10677-2 0  9991
2 25623  51.9984 327.6729 0010883 353.5870 179.0563 11.86598983175038
GLOBALSTAR M038         
1 25624U 99004D   25135.43140628 -.00000067  00000+0  23135-3 0  9995
2 25624  51.9945 165.9053 0001733 342.0249 155.7731 12.32527005198296
GLOBALSTAR M022         
1 25649U 99012A   25134.83333703 -.00000041  00000+0  55341-3 0  9998
2 25649  52.0071  21.5716 0003121 100.5808 355.4532 12.02500047172361
GLOBALSTAR M041         
1 25650U 99012B   25135.47571877 -.00000017  00000+0  88430-3 0  9995
2 25650  52.0021 260.2836 0001470 229.6068 130.4640 11.96676704174605
GLOBALSTAR M046         
1 25651U 99012C   25135.52499022 -.00000015  00000+0  80899-3 0  9992
2 25651  52.0074 331.0190 0002205 165.4248 218.9004 12.09410060180067
GLOBALSTAR M037         
1 25652U 99012D   25134.86808238 -.00000085  00000+0  10599-3 0  9999
2 25652  52.0008 285.5315 0002830 114.6463  50.5785 12.62444465207067
